{"type": "FeatureCollection", "features": [ {"type": "Feature", "properties": {"norad_id": 66619, "name": "STARLINK-35951", "group": "last-30-days", "lat": 49.343054663541906, "lon": -78.2756889233421, "alt_km": 411.94025962330034, "timestamp": "2025-12-17T21:39:44.491028+00:00", "meta": {"OBJECT_NAME": "STARLINK-35951", "OBJECT_ID": "2025-271C", "EPOCH": "2025-12-17T15:00:13.219200", "MEAN_MOTION": 15.49347323, "ECCENTRICITY": 6.424e-05, "INCLINATION": 53.1593, "RA_OF_ASC_NODE": 163.8581, "ARG_OF_PERICENTER": 13.2004, "MEAN_ANOMALY": 346.9022, "EPHEMERIS_TYPE": 0, "CLASSIFICATION_TYPE": "U", "NORAD_CAT_ID": 66619, "ELEMENT_SET_NO": 999, "REV_AT_EPOCH": 496, "BSTAR": 0.0010930264, "MEAN_MOTION_DOT": 0.00060899, "MEAN_MOTION_DDOT": 0}, "tle": {"line1": "1 66619U 25271C   25351.62515300  .00060899  00000+0  10930-2 0  9999", "line2": "2 66619  53.1593 163.8581 0000642  13.2004 346.9022 15.49347323  4966"}}, "geometry": {"type": "Point", "coordinates": [-78.2756889233421, 49.343054663541906]}}, {"type": "Feature", "properties": {"norad_id": 66620, "name": "STARLINK-35936", "group": "last-30-days", "lat": 51.2932870277834, "lon": -86.77908159715487, "alt_km": 410.8650728844277, "timestamp": "2025-12-17T21:39:44.491038+00:00", "meta": {"OBJECT_NAME": "STARLINK-35936", "OBJECT_ID": "2025-271D", "EPOCH": "2025-12-17T15:01:42.246624", "MEAN_MOTION": 15.49324687, "ECCENTRICITY": 0.00012538, "INCLINATION": 53.1599, "RA_OF_ASC_NODE": 163.8656, "ARG_OF_PERICENTER": 90.3166, "MEAN_ANOMALY": 269.7987, "EPHEMERIS_TYPE": 0, "CLASSIFICATION_TYPE": "U", "NORAD_CAT_ID": 66620, "ELEMENT_SET_NO": 999, "REV_AT_EPOCH": 496, "BSTAR": 0.0011865171, "MEAN_MOTION_DOT": 0.00066138, "MEAN_MOTION_DDOT": 0}, "tle": {"line1": "1 66620U 25271D   25351.62618341  .00066138  00000+0  11865-2 0  9990", "line2": "2 66620  53.1599 163.8656 0001253  90.3166 269.7987 15.49324687  4961"}}, "geometry": {"type": "Point", "coordinates": [-86.77908159715487, 51.2932870277834]}}, {"type": "Feature", "properties": {"norad_id": 66621, "name": "STARLINK-35847", "group": "last-30-days", "lat": 17.605552002658094, "lon": -31.33623959271535, "alt_km": 417.22179782964486, "timestamp": "2025-12-17T21:39:44.491050+00:00", "meta": {"OBJECT_NAME": "STARLINK-35847", "OBJECT_ID": "2025-271E", "EPOCH": "2025-12-17T13:14:38.143968", "MEAN_MOTION": 15.49330101, "ECCENTRICITY": 8.53e-05, "INCLINATION": 53.1596, "RA_OF_ASC_NODE": 164.1047, "ARG_OF_PERICENTER": 30.3801, "MEAN_ANOMALY": 329.7258, "EPHEMERIS_TYPE": 0, "CLASSIFICATION_TYPE": "U", "NORAD_CAT_ID": 66621, "ELEMENT_SET_NO": 999, "REV_AT_EPOCH": 495, "BSTAR": 0.001312851, "MEAN_MOTION_DOT": 0.0007331, "MEAN_MOTION_DDOT": 0}, "tle": {"line1": "1 66621U 25271E   25351.55183037  .00073310  00000+0  13129-2 0  9997", "line2": "2 66621  53.1596 164.1047 0000853  30.3801 329.7258 15.49330101  4957"}}, "geometry": {"type": "Point", "coordinates": [-31.33623959271535, 17.605552002658094]}}, {"type": "Feature", "properties": {"norad_id": 66622, "name": "STARLINK-35950", "group": "last-30-days", "lat": 52.883861381092515, "lon": -99.63186206648889, "alt_km": 429.23299410977233, "timestamp": "2025-12-17T21:39:44.491060+00:00", "meta": {"OBJECT_NAME": "STARLINK-35950", "OBJECT_ID": "2025-271F", "EPOCH": "2025-12-17T14:00:03.000384", "MEAN_MOTION": 15.44516395, "ECCENTRICITY": 0.00012503, "INCLINATION": 53.16, "RA_OF_ASC_NODE": 164.0724, "ARG_OF_PERICENTER": 72.0474, "MEAN_ANOMALY": 47.4875, "EPHEMERIS_TYPE": 0, "CLASSIFICATION_TYPE": "U", "NORAD_CAT_ID": 66622, "ELEMENT_SET_NO": 999, "REV_AT_EPOCH": 502, "BSTAR": -0.050039763, "MEAN_MOTION_DOT": -0.02091289, "MEAN_MOTION_DDOT": 0}, "tle": {"line1": "1 66622U 25271F   25351.58336806 -.02091289  00000+0 -50040-1 0  9996", "line2": "2 66622  53.1600 164.0724 0001250  72.0474  47.4875 15.44516395  5020"}}, "geometry": {"type": "Point", "coordinates": [-99.63186206648889, 52.883861381092515]}}, {"type": "Feature", "properties": {"norad_id": 66623, "name": "STARLINK-35920", "group": "last-30-days", "lat": 36.31525512182989, "lon": -163.91190964512407, "alt_km": 442.2549811136696, "timestamp": "2025-12-17T21:39:44.491069+00:00", "meta": {"OBJECT_NAME": "STARLINK-35920", "OBJECT_ID": "2025-271G", "EPOCH": "2025-12-17T14:00:03.000384", "MEAN_MOTION": 15.39621707, "ECCENTRICITY": 9.712e-05, "INCLINATION": 53.1594, "RA_OF_ASC_NODE": 164.1543, "ARG_OF_PERICENTER": 108.8402, "MEAN_ANOMALY": 328.6036, "EPHEMERIS_TYPE": 0, "CLASSIFICATION_TYPE": "U", "NORAD_CAT_ID": 66623, "ELEMENT_SET_NO": 999, "REV_AT_EPOCH": 502, "BSTAR": 7.7202571e-05, "MEAN_MOTION_DOT": 2.69e-05, "MEAN_MOTION_DDOT": 0}, "tle": {"line1": "1 66623U 25271G   25351.58336806  .00002690  00000+0  77203-4 0  9994", "line2": "2 66623  53.1594 164.1543 0000971 108.8402 328.6036 15.39621707  5022"}}, "geometry": {"type": "Point", "coordinates": [-163.91190964512407, 36.31525512182989]}}, {"type": "Feature", "properties": {"norad_id": 66624, "name": "STARLINK-35927", "group": "last-30-days", "lat": 47.727398814635755, "lon": -73.03844744445252, "alt_km": 411.7769091620321, "timestamp": "2025-12-17T21:39:44.491078+00:00", "meta": {"OBJECT_NAME": "STARLINK-35927", "OBJECT_ID": "2025-271H", "EPOCH": "2025-12-17T13:26:20.407488", "MEAN_MOTION": 15.49322202, "ECCENTRICITY": 8.455e-05, "INCLINATION": 53.1595, "RA_OF_ASC_NODE": 164.1625, "ARG_OF_PERICENTER": 67.9465, "MEAN_ANOMALY": 292.1633, "EPHEMERIS_TYPE": 0, "CLASSIFICATION_TYPE": "U", "NORAD_CAT_ID": 66624, "ELEMENT_SET_NO": 999, "REV_AT_EPOCH": 495, "BSTAR": 0.0010703118, "MEAN_MOTION_DOT": 0.00059561, "MEAN_MOTION_DDOT": 0}, "tle": {"line1": "1 66624U 25271H   25351.55995842  .00059561  00000+0  10703-2 0  9992", "line2": "2 66624  53.1595 164.1625 0000845  67.9465 292.1633 15.49322202  4957"}}, "geometry": {"type": "Point", "coordinates": [-73.03844744445252, 47.727398814635755]}}, {"type": "Feature", "properties": {"norad_id": 66625, "name": "STARLINK-35929", "group": "last-30-days", "lat": 45.86849644298113, "lon": -68.09241119184915, "alt_km": 411.44007786323255, "timestamp": "2025-12-17T21:39:44.491087+00:00", "meta": {"OBJECT_NAME": "STARLINK-35929", "OBJECT_ID": "2025-271J", "EPOCH": "2025-12-17T13:25:20.966880", "MEAN_MOTION": 15.49335545, "ECCENTRICITY": 0.00014819, "INCLINATION": 53.1596, "RA_OF_ASC_NODE": 164.1569, "ARG_OF_PERICENTER": 102.8495, "MEAN_ANOMALY": 257.268, "EPHEMERIS_TYPE": 0, "CLASSIFICATION_TYPE": "U", "NORAD_CAT_ID": 66625, "ELEMENT_SET_NO": 999, "REV_AT_EPOCH": 495, "BSTAR": 0.0010908268, "MEAN_MOTION_DOT": 0.0006075, "MEAN_MOTION_DDOT": 0}, "tle": {"line1": "1 66625U 25271J   25351.55927045  .00060750  00000+0  10908-2 0  9992", "line2": "2 66625  53.1596 164.1569 0001481 102.8495 257.2680 15.49335545  4953"}}, "geometry": {"type": "Point", "coordinates": [-68.09241119184915, 45.86849644298113]}}, {"type": "Feature", "properties": {"norad_id": 66626, "name": "STARLINK-35902", "group": "last-30-days", "lat": 50.12973186668628, "lon": -133.5546803114227, "alt_km": 439.678595252406, "timestamp": "2025-12-17T21:39:44.491097+00:00", "meta": {"OBJECT_NAME": "STARLINK-35902", "OBJECT_ID": "2025-271K", "EPOCH": "2025-12-17T14:00:03.000384", "MEAN_MOTION": 15.39592635, "ECCENTRICITY": 0.00014665, "INCLINATION": 53.1593, "RA_OF_ASC_NODE": 164.103, "ARG_OF_PERICENTER": 99.7984, "MEAN_ANOMALY": 3.4782, "EPHEMERIS_TYPE": 0, "CLASSIFICATION_TYPE": "U", "NORAD_CAT_ID": 66626, "ELEMENT_SET_NO": 999, "REV_AT_EPOCH": 502, "BSTAR": 0.00013521237, "MEAN_MOTION_DOT": 5.008e-05, "MEAN_MOTION_DDOT": 0}, "tle": {"line1": "1 66626U 25271K   25351.58336806  .00005008  00000+0  13521-3 0  9995", "line2": "2 66626  53.1593 164.1030 0001466  99.7984   3.4782 15.39592635  5021"}}, "geometry": {"type": "Point", "coordinates": [-133.5546803114227, 50.12973186668628]}}, {"type": "Feature", "properties": {"norad_id": 66627, "name": "STARLINK-35904", "group": "last-30-days", "lat": 47.416699601194495, "lon": -72.14634212635379, "alt_km": 424.0076896503642, "timestamp": "2025-12-17T21:39:44.491107+00:00", "meta": {"OBJECT_NAME": "STARLINK-35904", "OBJECT_ID": "2025-271L", "EPOCH": "2025-12-17T14:00:03.000384", "MEAN_MOTION": 15.46602219, "ECCENTRICITY": 9.855e-05, "INCLINATION": 53.1597, "RA_OF_ASC_NODE": 164.039, "ARG_OF_PERICENTER": 85.6098, "MEAN_ANOMALY": 49.8228, "EPHEMERIS_TYPE": 0, "CLASSIFICATION_TYPE": "U", "NORAD_CAT_ID": 66627, "ELEMENT_SET_NO": 999, "REV_AT_EPOCH": 486, "BSTAR": -0.046170823, "MEAN_MOTION_DOT": -0.02075803, "MEAN_MOTION_DDOT": 0}, "tle": {"line1": "1 66627U 25271L   25351.58336806 -.02075803  00000+0 -46171-1 0  9995", "line2": "2 66627  53.1597 164.0390 0000985  85.6098  49.8228 15.46602219  4867"}}, "geometry": {"type": "Point", "coordinates": [-72.14634212635379, 47.416699601194495]}}, {"type": "Feature", "properties": {"norad_id": 66628, "name": "STARLINK-35862", "group": "last-30-days", "lat": 42.766300874265454, "lon": -61.40151159862048, "alt_km": 412.54963501670136, "timestamp": "2025-12-17T21:39:44.491118+00:00", "meta": {"OBJECT_NAME": "STARLINK-35862", "OBJECT_ID": "2025-271M", "EPOCH": "2025-12-17T11:50:58.940736", "MEAN_MOTION": 15.4931178, "ECCENTRICITY": 5.519e-05, "INCLINATION": 53.1593, "RA_OF_ASC_NODE": 164.4578, "ARG_OF_PERICENTER": 95.4275, "MEAN_ANOMALY": 264.6797, "EPHEMERIS_TYPE": 0, "CLASSIFICATION_TYPE": "U", "NORAD_CAT_ID": 66628, "ELEMENT_SET_NO": 999, "REV_AT_EPOCH": 494, "BSTAR": 0.0014588325, "MEAN_MOTION_DOT": 0.00081545, "MEAN_MOTION_DDOT": 0}, "tle": {"line1": "1 66628U 25271M   25351.49373774  .00081545  00000+0  14588-2 0  9995", "line2": "2 66628  53.1593 164.4578 0000551  95.4275 264.6797 15.49311780  4941"}}, "geometry": {"type": "Point", "coordinates": [-61.40151159862048, 42.766300874265454]}}]}